ORBCOMM FM06            
1 25118U 97084G   26185.82735214  .00001872  00000+0  54243-3 0  9997
2 25118  45.0146 327.7898 0000643 198.7103 314.2275 14.47611499496947
ORBCOMM FM04            
1 25159U 98007C   26185.81276671  .00001128  00000+0  43100-3 0  9998
2 25159 107.9628 205.6962 0041799 294.5560  65.1227 14.35773903479126
ORBCOMM FM19            
1 25415U 98046C   26185.91005420  .00001259  00000+0  44521-3 0  9992
2 25415  44.9920 159.3149 0003824   0.5493  21.8722 14.39527726459339
ORBCOMM FM20            
1 25416U 98046D   26185.93618945  .00000845  00000+0  32272-3 0  9997
2 25416  44.9918 167.3094 0002216 311.1595  48.9061 14.38089330459343
ORBCOMM FM27            
1 25481U 98053G   26185.47253721  .00000896  00000+0  33238-3 0  9992
2 25481  45.0046 253.2530 0002280 254.8414 105.2183 14.39172966452729
ORBCOMM FM32            
1 25982U 99065C   26185.46069270  .00000893  00000+0  34474-3 0  9995
2 25982  45.0150  91.4757 0004728 136.5900 223.5321 14.37156132389574
ORBCOMM FM109           
1 40086U 14040A   26185.90495356  .00000614  00000+0  16607-3 0  9993
2 40086  47.0042   7.7183 0001836 293.3925  66.6767 14.58865680636930
ORBCOMM FM110           
1 41182U 15081D   26185.56766189  .00001016  00000+0  25086-3 0  9992
2 41182  47.0022 279.2626 0003016 174.8918 185.1999 14.58909708560166
ORBCOMM FM118           
1 41183U 15081E   26185.60199432  .00000639  00000+0  17120-3 0  9999
2 41183  47.0040 279.4352 0002378 131.4210 228.6881 14.58898179560273
ORBCOMM FM112           
1 41184U 15081F   26185.74319075  .00000900  00000+0  22627-3 0  9991
2 41184  46.9970 187.2276 0004107 286.2604  73.7830 14.58926832561512
ORBCOMM FM113           
1 41185U 15081G   26185.72039852  .00000554  00000+0  15343-3 0  9994
2 41185  46.9987 187.7205 0002603 284.4272  75.6324 14.58875090561493
ORBCOMM FM108           
1 41187U 15081J   26185.81955380  .00001013  00000+0  25030-3 0  9994
2 41187  47.0047  98.8298 0003097 285.1735  74.8808 14.58899550562652
ORBCOMM FM117           
1 41188U 15081K   26185.78519864  .00000982  00000+0  24393-3 0  9999
2 41188  47.0010  97.6217 0003559 289.9763  70.0739 14.58886983562698
ORBCOMM FM116           
1 41189U 15081L   26185.42299114  .00000326  00000+0  10516-3 0  9998
2 41189  47.0003 189.1243 0001092 197.0063 163.0787 14.58899524561453
